{"type": "FeatureCollection", "features": [ {"type": "Feature", "properties": {"norad_id": 34079, "name": "IRIDIUM 33 DEB", "group": "iridium-33-debris", "lat": -6.701199046379554, "lon": 1.5683153941067012, "alt_km": 618.9362692559725, "timestamp": "2025-12-27T09:28:56.862335+00:00", "meta": {"OBJECT_NAME": "IRIDIUM 33 DEB", "OBJECT_ID": "1997-051CN", "EPOCH": "2025-12-27T01:42:51.323040", "MEAN_MOTION": 14.83927191, "ECCENTRICITY": 0.0003744, "INCLINATION": 86.3778, "RA_OF_ASC_NODE": 2.142, "ARG_OF_PERICENTER": 311.9974, "MEAN_ANOMALY": 113.4004, "EPHEMERIS_TYPE": 0, "CLASSIFICATION_TYPE": "U", "NORAD_CAT_ID": 34079, "ELEMENT_SET_NO": 999, "REV_AT_EPOCH": 89190, "BSTAR": 0.0022888, "MEAN_MOTION_DOT": 0.00019073, "MEAN_MOTION_DDOT": 0}, "tle": {"line1": "1 34079U 97051CN  25361.07142735  .00019073  00000+0  22888-2 0  9990", "line2": "2 34079  86.3778   2.1420 0003744 311.9974 113.4004 14.83927191891900"}}, "geometry": {"type": "Point", "coordinates": [1.5683153941067012, -6.701199046379554]}}, {"type": "Feature", "properties": {"norad_id": 34088, "name": "IRIDIUM 33 DEB", "group": "iridium-33-debris", "lat": 34.10171070517646, "lon": -158.4679783525259, "alt_km": 584.5673419345203, "timestamp": "2025-12-27T09:28:56.862346+00:00", "meta": {"OBJECT_NAME": "IRIDIUM 33 DEB", "OBJECT_ID": "1997-051CX", "EPOCH": "2025-12-27T02:38:55.250880", "MEAN_MOTION": 14.92046916, "ECCENTRICITY": 0.0007215, "INCLINATION": 86.3846, "RA_OF_ASC_NODE": 24.1166, "ARG_OF_PERICENTER": 132.7861, "MEAN_ANOMALY": 284.4811, "EPHEMERIS_TYPE": 0, "CLASSIFICATION_TYPE": "U", "NORAD_CAT_ID": 34088, "ELEMENT_SET_NO": 999, "REV_AT_EPOCH": 88956, "BSTAR": 0.0029256, "MEAN_MOTION_DOT": 0.0002981, "MEAN_MOTION_DDOT": 0}, "tle": {"line1": "1 34088U 97051CX  25361.11036170  .00029810  00000+0  29256-2 0  9996", "line2": "2 34088  86.3846  24.1166 0007215 132.7861 284.4811 14.92046916889569"}}, "geometry": {"type": "Point", "coordinates": [-158.4679783525259, 34.10171070517646]}}, {"type": "Feature", "properties": {"norad_id": 34091, "name": "IRIDIUM 33 DEB", "group": "iridium-33-debris", "lat": -18.153143255767233, "lon": -118.68132510307113, "alt_km": 607.5900282950543, "timestamp": "2025-12-27T09:28:56.862356+00:00", "meta": {"OBJECT_NAME": "IRIDIUM 33 DEB", "OBJECT_ID": "1997-051DA", "EPOCH": "2025-12-27T03:43:50.479104", "MEAN_MOTION": 14.82901423, "ECCENTRICITY": 0.0034302, "INCLINATION": 86.3407, "RA_OF_ASC_NODE": 60.2263, "ARG_OF_PERICENTER": 241.6733, "MEAN_ANOMALY": 118.1028, "EPHEMERIS_TYPE": 0, "CLASSIFICATION_TYPE": "U", "NORAD_CAT_ID": 34091, "ELEMENT_SET_NO": 999, "REV_AT_EPOCH": 88080, "BSTAR": 0.0057593, "MEAN_MOTION_DOT": 0.00047447, "MEAN_MOTION_DDOT": 0}, "tle": {"line1": "1 34091U 97051DA  25361.15544536  .00047447  00000+0  57593-2 0  9995", "line2": "2 34091  86.3407  60.2263 0034302 241.6733 118.1028 14.82901423880803"}}, "geometry": {"type": "Point", "coordinates": [-118.68132510307113, -18.153143255767233]}}, {"type": "Feature", "properties": {"norad_id": 34097, "name": "IRIDIUM 33 DEB", "group": "iridium-33-debris", "lat": 75.52575014928904, "lon": 160.0216414042858, "alt_km": 818.3940653179525, "timestamp": "2025-12-27T09:28:56.862367+00:00", "meta": {"OBJECT_NAME": "IRIDIUM 33 DEB", "OBJECT_ID": "1997-051DG", "EPOCH": "2025-12-26T22:57:25.330752", "MEAN_MOTION": 14.34897502, "ECCENTRICITY": 0.0081165, "INCLINATION": 86.2009, "RA_OF_ASC_NODE": 355.1315, "ARG_OF_PERICENTER": 315.5596, "MEAN_ANOMALY": 43.9106, "EPHEMERIS_TYPE": 0, "CLASSIFICATION_TYPE": "U", "NORAD_CAT_ID": 34097, "ELEMENT_SET_NO": 999, "REV_AT_EPOCH": 87323, "BSTAR": 0.0019362, "MEAN_MOTION_DOT": 5.728e-05, "MEAN_MOTION_DDOT": 0}, "tle": {"line1": "1 34097U 97051DG  25360.95654318  .00005728  00000+0  19362-2 0  9996", "line2": "2 34097  86.2009 355.1315 0081165 315.5596  43.9106 14.34897502873237"}}, "geometry": {"type": "Point", "coordinates": [160.0216414042858, 75.52575014928904]}}, {"type": "Feature", "properties": {"norad_id": 34145, "name": "IRIDIUM 33 DEB", "group": "iridium-33-debris", "lat": 47.9494887108818, "lon": -29.789086524841824, "alt_km": 706.8937880307067, "timestamp": "2025-12-27T09:28:56.862378+00:00", "meta": {"OBJECT_NAME": "IRIDIUM 33 DEB", "OBJECT_ID": "1997-051DY", "EPOCH": "2025-12-27T02:36:09.705888", "MEAN_MOTION": 14.42400271, "ECCENTRICITY": 0.0055377, "INCLINATION": 86.2127, "RA_OF_ASC_NODE": 326.1271, "ARG_OF_PERICENTER": 48.2173, "MEAN_ANOMALY": 312.3739, "EPHEMERIS_TYPE": 0, "CLASSIFICATION_TYPE": "U", "NORAD_CAT_ID": 34145, "ELEMENT_SET_NO": 999, "REV_AT_EPOCH": 87845, "BSTAR": 0.0016358, "MEAN_MOTION_DOT": 5.529e-05, "MEAN_MOTION_DDOT": 0}, "tle": {"line1": "1 34145U 97051DY  25361.10844567  .00005529  00000+0  16358-2 0  9996", "line2": "2 34145  86.2127 326.1271 0055377  48.2173 312.3739 14.42400271878454"}}, "geometry": {"type": "Point", "coordinates": [-29.789086524841824, 47.9494887108818]}}, {"type": "Feature", "properties": {"norad_id": 34146, "name": "IRIDIUM 33 DEB", "group": "iridium-33-debris", "lat": 41.194315138716945, "lon": -13.41372992136741, "alt_km": 737.5726471030466, "timestamp": "2025-12-27T09:28:56.862389+00:00", "meta": {"OBJECT_NAME": "IRIDIUM 33 DEB", "OBJECT_ID": "1997-051DZ", "EPOCH": "2025-12-26T05:10:53.931072", "MEAN_MOTION": 14.49135058, "ECCENTRICITY": 0.0027049, "INCLINATION": 86.2845, "RA_OF_ASC_NODE": 343.8464, "ARG_OF_PERICENTER": 175.3009, "MEAN_ANOMALY": 198.4852, "EPHEMERIS_TYPE": 0, "CLASSIFICATION_TYPE": "U", "NORAD_CAT_ID": 34146, "ELEMENT_SET_NO": 999, "REV_AT_EPOCH": 88302, "BSTAR": 0.00092782, "MEAN_MOTION_DOT": 3.563e-05, "MEAN_MOTION_DDOT": 0}, "tle": {"line1": "1 34146U 97051DZ  25360.21590198  .00003563  00000+0  92782-3 0  9998", "line2": "2 34146  86.2845 343.8464 0027049 175.3009 198.4852 14.49135058883020"}}, "geometry": {"type": "Point", "coordinates": [-13.41372992136741, 41.194315138716945]}}, {"type": "Feature", "properties": {"norad_id": 34159, "name": "IRIDIUM 33 DEB", "group": "iridium-33-debris", "lat": -80.25983331323734, "lon": 20.153267695044057, "alt_km": 757.0415050033635, "timestamp": "2025-12-27T09:28:56.862400+00:00", "meta": {"OBJECT_NAME": "IRIDIUM 33 DEB", "OBJECT_ID": "1997-051EN", "EPOCH": "2025-12-27T03:10:49.605312", "MEAN_MOTION": 14.38529458, "ECCENTRICITY": 0.0026307, "INCLINATION": 86.3489, "RA_OF_ASC_NODE": 42.1028, "ARG_OF_PERICENTER": 236.8927, "MEAN_ANOMALY": 122.9746, "EPHEMERIS_TYPE": 0, "CLASSIFICATION_TYPE": "U", "NORAD_CAT_ID": 34159, "ELEMENT_SET_NO": 999, "REV_AT_EPOCH": 88166, "BSTAR": 0.00044785, "MEAN_MOTION_DOT": 1.393e-05, "MEAN_MOTION_DDOT": 0}, "tle": {"line1": "1 34159U 97051EN  25361.13251858  .00001393  00000+0  44785-3 0  9990", "line2": "2 34159  86.3489  42.1028 0026307 236.8927 122.9746 14.38529458881663"}}, "geometry": {"type": "Point", "coordinates": [20.153267695044057, -80.25983331323734]}}, {"type": "Feature", "properties": {"norad_id": 34350, "name": "IRIDIUM 33 DEB", "group": "iridium-33-debris", "lat": -49.39282728186686, "lon": -7.849184772309387, "alt_km": 760.3537164083273, "timestamp": "2025-12-27T09:28:56.862410+00:00", "meta": {"OBJECT_NAME": "IRIDIUM 33 DEB", "OBJECT_ID": "1997-051ES", "EPOCH": "2025-12-26T11:11:35.511072", "MEAN_MOTION": 14.45418943, "ECCENTRICITY": 0.0023531, "INCLINATION": 86.3274, "RA_OF_ASC_NODE": 356.8502, "ARG_OF_PERICENTER": 93.2383, "MEAN_ANOMALY": 67.9711, "EPHEMERIS_TYPE": 0, "CLASSIFICATION_TYPE": "U", "NORAD_CAT_ID": 34350, "ELEMENT_SET_NO": 999, "REV_AT_EPOCH": 88491, "BSTAR": 0.00036255, "MEAN_MOTION_DOT": 1.3e-05, "MEAN_MOTION_DDOT": 0}, "tle": {"line1": "1 34350U 97051ES  25360.46638323  .00001300  00000+0  36255-3 0  9995", "line2": "2 34350  86.3274 356.8502 0023531  93.2383  67.9711 14.45418943884912"}}, "geometry": {"type": "Point", "coordinates": [-7.849184772309387, -49.39282728186686]}}, {"type": "Feature", "properties": {"norad_id": 34366, "name": "IRIDIUM 33 DEB", "group": "iridium-33-debris", "lat": 17.11316281763937, "lon": 44.05785825055451, "alt_km": 708.9568721247779, "timestamp": "2025-12-27T09:28:56.862421+00:00", "meta": {"OBJECT_NAME": "IRIDIUM 33 DEB", "OBJECT_ID": "1997-051FJ", "EPOCH": "2025-12-27T04:46:07.017312", "MEAN_MOTION": 14.54168498, "ECCENTRICITY": 0.002303, "INCLINATION": 86.3682, "RA_OF_ASC_NODE": 43.0228, "ARG_OF_PERICENTER": 94.9118, "MEAN_ANOMALY": 335.0579, "EPHEMERIS_TYPE": 0, "CLASSIFICATION_TYPE": "U", "NORAD_CAT_ID": 34366, "ELEMENT_SET_NO": 999, "REV_AT_EPOCH": 88392, "BSTAR": 0.0010581, "MEAN_MOTION_DOT": 4.511e-05, "MEAN_MOTION_DDOT": 0}, "tle": {"line1": "1 34366U 97051FJ  25361.19869233  .00004511  00000+0  10581-2 0  9999", "line2": "2 34366  86.3682  43.0228 0023030  94.9118 335.0579 14.54168498883928"}}, "geometry": {"type": "Point", "coordinates": [44.05785825055451, 17.11316281763937]}}, {"type": "Feature", "properties": {"norad_id": 34375, "name": "IRIDIUM 33 DEB", "group": "iridium-33-debris", "lat": -11.59040672326339, "lon": -2.4725416313468194, "alt_km": 862.1065611142612, "timestamp": "2025-12-27T09:28:56.862431+00:00", "meta": {"OBJECT_NAME": "IRIDIUM 33 DEB", "OBJECT_ID": "1997-051FT", "EPOCH": "2025-12-26T23:01:44.485824", "MEAN_MOTION": 14.1801844, "ECCENTRICITY": 0.0103676, "INCLINATION": 86.4324, "RA_OF_ASC_NODE": 176.9699, "ARG_OF_PERICENTER": 82.2682, "MEAN_ANOMALY": 46.0207, "EPHEMERIS_TYPE": 0, "CLASSIFICATION_TYPE": "U", "NORAD_CAT_ID": 34375, "ELEMENT_SET_NO": 999, "REV_AT_EPOCH": 86913, "BSTAR": 0.00046621, "MEAN_MOTION_DOT": 1.026e-05, "MEAN_MOTION_DDOT": 0}, "tle": {"line1": "1 34375U 97051FT  25360.95954266  .00001026  00000+0  46621-3 0  9996", "line2": "2 34375  86.4324 176.9699 0103676  82.2682  46.0207 14.18018440869136"}}, "geometry": {"type": "Point", "coordinates": [-2.4725416313468194, -11.59040672326339]}}]}